ISS (ZARYA)             
1 25544U 98067A   25317.90231501  .00020623  00000+0  37295-3 0  9990
2 25544  51.6330 285.2246 0004162  68.1997 291.9434 15.49643762538388
CSS (TIANHE)            
1 48274U 21035A   25318.01442622  .00031369  00000+0  36298-3 0  9998
2 48274  41.4648 191.0371 0003884  22.4689 337.6319 15.61166938259543
ISS (NAUKA)             
1 49044U 21066A   25317.90231501  .00020623  00000+0  37295-3 0  9996
2 49044  51.6330 285.2246 0004162  68.1997 291.9434 15.49643762230445
FREGAT DEB              
1 49271U 11037PF  25316.61085732  .00016080  00000+0  34445-1 0  9999
2 49271  51.6229 288.5362 0880592 158.9260 205.0363 12.33975220198211
CSS (WENTIAN)           
1 53239U 22085A   25317.95045496  .00052703  00000+0  60551-3 0  9995
2 53239  41.4653 191.4272 0003866  22.2669 337.8338 15.61169901173840
CSS (MENGTIAN)          
1 54216U 22143A   25317.95045496  .00052703  00000+0  60551-3 0  9996
2 54216  41.4653 191.4272 0003866  22.2669 337.8338 15.61169901158647
SOYUZ-MS 27             
1 63520U 25072A   25317.90231501  .00020623  00000+0  37295-3 0  9992
2 63520  51.6330 285.2246 0004162  68.1997 291.9434 15.49643762 20201
SHENZHOU-20 (SZ-20)     
1 63632U 25082A   25317.95045496  .00052703  00000+0  60551-3 0  9993
2 63632  41.4653 191.4272 0003866  22.2669 337.8338 15.61169901255300
PROGRESS-MS 31          
1 64751U 25146A   25317.90231501  .00020623  00000+0  37295-3 0  9991
2 64751  51.6330 285.2246 0004162  68.1997 291.9434 15.49643762  6752
TIANZHOU-9              
1 64786U 25149A   25317.95045496  .00052703  00000+0  60551-3 0  9998
2 64786  41.4653 191.4272 0003866  22.2669 337.8338 15.61169901255301
CREW DRAGON 11          
1 65077U 25166A   25317.90231501  .00020623  00000+0  37295-3 0  9995
2 65077  51.6330 285.2246 0004162  68.1997 291.9434 15.49643762  2143
DRAGON CRS-33           
1 65304U 25186A   25317.90231501  .00020623  00000+0  37295-3 0  9990
2 65304  51.6330 285.2246 0004162  68.1997 291.9434 15.49643762   111
